{
  "type": "FeatureCollection",
  "features": [
    {
      "type": "Feature",
      "properties": {
        "norad_id": 66718,
        "name": "FLOCK 4H-15",
        "group": "last-30-days",
        "lat": -20.01989551846915,
        "lon": -110.32867166791846,
        "alt_km": 518.3027663466282,
        "timestamp": "2025-12-26T21:25:51.733086+00:00",
        "meta_object_name": "FLOCK 4H-15",
        "meta_object_id": "2025-276BE",
        "meta_epoch": "2025-12-26T14:13:11.573184",
        "meta_mean_motion": 15.17147033,
        "meta_eccentricity": 0.00031307,
        "meta_inclination": 97.4416,
        "meta_ra_of_asc_node": 72.106,
        "meta_arg_of_pericenter": 249.7582,
        "meta_mean_anomaly": 110.3316,
        "meta_ephemeris_type": 0,
        "meta_classification_type": "U",
        "meta_norad_cat_id": 66718,
        "meta_element_set_no": 999,
        "meta_rev_at_epoch": 422,
        "meta_bstar": 0.00033195315,
        "meta_mean_motion_dot": 6.522e-05,
        "meta_mean_motion_ddot": 0,
        "tle_line1": "1 66718U 25276BE  25360.59249506  .00006522  00000+0  33195-3 0  9994",
        "tle_line2": "2 66718  97.4416  72.1060 0003130 249.7582 110.3316 15.17147033  4226"
      },
      "geometry": {
        "type": "Point",
        "coordinates": [
          -110.32867166791846,
          -20.01989551846915
        ]
      }
    },
    {
      "type": "Feature",
      "properties": {
        "norad_id": 66719,
        "name": "FLOCK 4H-16",
        "group": "last-30-days",
        "lat": -30.760901057285018,
        "lon": -112.05162616838876,
        "alt_km": 517.9387571673833,
        "timestamp": "2025-12-26T21:25:51.733096+00:00",
        "meta_object_name": "FLOCK 4H-16",
        "meta_object_id": "2025-276BF",
        "meta_epoch": "2025-12-26T14:00:04.000032",
        "meta_mean_motion": 15.17223106,
        "meta_eccentricity": 0.00033885,
        "meta_inclination": 97.443,
        "meta_ra_of_asc_node": 72.107,
        "meta_arg_of_pericenter": 230.9286,
        "meta_mean_anomaly": 90.1434,
        "meta_ephemeris_type": 0,
        "meta_classification_type": "U",
        "meta_norad_cat_id": 66719,
        "meta_element_set_no": 999,
        "meta_rev_at_epoch": 364,
        "meta_bstar": 0.0042662437,
        "meta_mean_motion_dot": 0.00085711,
        "meta_mean_motion_ddot": 0,
        "tle_line1": "1 66719U 25276BF  25360.58337963  .00085711  00000+0  42662-2 0  9994",
        "tle_line2": "2 66719  97.4430  72.1070 0003388 230.9286  90.1434 15.17223106  3649"
      },
      "geometry": {
        "type": "Point",
        "coordinates": [
          -112.05162616838876,
          -30.760901057285018
        ]
      }
    },
    {
      "type": "Feature",
      "properties": {
        "norad_id": 66720,
        "name": "FLOCK 4H-17",
        "group": "last-30-days",
        "lat": -65.97240610166692,
        "lon": 89.50252785980182,
        "alt_km": 521.4816350138908,
        "timestamp": "2025-12-26T21:25:51.733106+00:00",
        "meta_object_name": "FLOCK 4H-17",
        "meta_object_id": "2025-276BG",
        "meta_epoch": "2025-12-26T12:13:59.234304",
        "meta_mean_motion": 15.1787966,
        "meta_eccentricity": 0.00035328,
        "meta_inclination": 97.4433,
        "meta_ra_of_asc_node": 72.0725,
        "meta_arg_of_pericenter": 161.2832,
        "meta_mean_anomaly": 198.8533,
        "meta_ephemeris_type": 0,
        "meta_classification_type": "U",
        "meta_norad_cat_id": 66720,
        "meta_element_set_no": 999,
        "meta_rev_at_epoch": 421,
        "meta_bstar": -0.0064614832,
        "meta_mean_motion_dot": -0.00128635,
        "meta_mean_motion_ddot": 0,
        "tle_line1": "1 66720U 25276BG  25360.50971336 -.00128635  00000+0 -64615-2 0  9993",
        "tle_line2": "2 66720  97.4433  72.0725 0003532 161.2832 198.8533 15.17879660  4216"
      },
      "geometry": {
        "type": "Point",
        "coordinates": [
          89.50252785980182,
          -65.97240610166692
        ]
      }
    },
    {
      "type": "Feature",
      "properties": {
        "norad_id": 66721,
        "name": "FLOCK 4H-18",
        "group": "last-30-days",
        "lat": -23.46366582957982,
        "lon": -110.86473975160678,
        "alt_km": 519.0175854072531,
        "timestamp": "2025-12-26T21:25:51.733116+00:00",
        "meta_object_name": "FLOCK 4H-18",
        "meta_object_id": "2025-276BH",
        "meta_epoch": "2025-12-26T14:12:17.288928",
        "meta_mean_motion": 15.17185823,
        "meta_eccentricity": 0.00024957,
        "meta_inclination": 97.4375,
        "meta_ra_of_asc_node": 72.0903,
        "meta_arg_of_pericenter": 264.1002,
        "meta_mean_anomaly": 95.9947,
        "meta_ephemeris_type": 0,
        "meta_classification_type": "U",
        "meta_norad_cat_id": 66721,
        "meta_element_set_no": 999,
        "meta_rev_at_epoch": 422,
        "meta_bstar": 0.00051149938,
        "meta_mean_motion_dot": 0.00010101,
        "meta_mean_motion_ddot": 0,
        "tle_line1": "1 66721U 25276BH  25360.59186677  .00010101  00000+0  51150-3 0  9996",
        "tle_line2": "2 66721  97.4375  72.0903 0002495 264.1002  95.9947 15.17185823  4227"
      },
      "geometry": {
        "type": "Point",
        "coordinates": [
          -110.86473975160678,
          -23.46366582957982
        ]
      }
    },
    {
      "type": "Feature",
      "properties": {
        "norad_id": 66722,
        "name": "FLOCK 4H-19",
        "group": "last-30-days",
        "lat": -47.5867001542082,
        "lon": 80.65522560700228,
        "alt_km": 519.4143474249704,
        "timestamp": "2025-12-26T21:25:51.733126+00:00",
        "meta_object_name": "FLOCK 4H-19",
        "meta_object_id": "2025-276BJ",
        "meta_epoch": "2025-12-26T13:44:03.737472",
        "meta_mean_motion": 15.18346822,
        "meta_eccentricity": 0.00025842,
        "meta_inclination": 97.4379,
        "meta_ra_of_asc_node": 72.1182,
        "meta_arg_of_pericenter": 145.7552,
        "meta_mean_anomaly": 214.3849,
        "meta_ephemeris_type": 0,
        "meta_classification_type": "U",
        "meta_norad_cat_id": 66722,
        "meta_element_set_no": 999,
        "meta_rev_at_epoch": 351,
        "meta_bstar": 0.00082529674,
        "meta_mean_motion_dot": 0.00016908,
        "meta_mean_motion_ddot": 0,
        "tle_line1": "1 66722U 25276BJ  25360.57226548  .00016908  00000+0  82530-3 0  9994",
        "tle_line2": "2 66722  97.4379  72.1182 0002584 145.7552 214.3849 15.18346822  3513"
      },
      "geometry": {
        "type": "Point",
        "coordinates": [
          80.65522560700228,
          -47.5867001542082
        ]
      }
    },
    {
      "type": "Feature",
      "properties": {
        "norad_id": 66723,
        "name": "FLOCK 4H-20",
        "group": "last-30-days",
        "lat": -43.614765173111564,
        "lon": 79.60461096324997,
        "alt_km": 519.4448300544782,
        "timestamp": "2025-12-26T21:25:51.733137+00:00",
        "meta_object_name": "FLOCK 4H-20",
        "meta_object_id": "2025-276BK",
        "meta_epoch": "2025-12-26T13:43:00.103872",
        "meta_mean_motion": 15.18367365,
        "meta_eccentricity": 0.00030885,
        "meta_inclination": 97.4415,
        "meta_ra_of_asc_node": 72.1346,
        "meta_arg_of_pericenter": 159.8966,
        "meta_mean_anomaly": 200.239,
        "meta_ephemeris_type": 0,
        "meta_classification_type": "U",
        "meta_norad_cat_id": 66723,
        "meta_element_set_no": 999,
        "meta_rev_at_epoch": 347,
        "meta_bstar": 0.00056888821,
        "meta_mean_motion_dot": 0.00011633,
        "meta_mean_motion_ddot": 0,
        "tle_line1": "1 66723U 25276BK  25360.57152898  .00011633  00000+0  56889-3 0  9999",
        "tle_line2": "2 66723  97.4415  72.1346 0003088 159.8966 200.2390 15.18367365  3477"
      },
      "geometry": {
        "type": "Point",
        "coordinates": [
          79.60461096324997,
          -43.614765173111564
        ]
      }
    },
    {
      "type": "Feature",
      "properties": {
        "norad_id": 66724,
        "name": "FLOCK 4H-21",
        "group": "last-30-days",
        "lat": -40.13564205077455,
        "lon": 78.76080729904398,
        "alt_km": 518.5259293269446,
        "timestamp": "2025-12-26T21:25:51.733147+00:00",
        "meta_object_name": "FLOCK 4H-21",
        "meta_object_id": "2025-276BL",
        "meta_epoch": "2025-12-26T10:32:15.855360",
        "meta_mean_motion": 15.18368984,
        "meta_eccentricity": 0.00020714,
        "meta_inclination": 97.4381,
        "meta_ra_of_asc_node": 71.9904,
        "meta_arg_of_pericenter": 178.7991,
        "meta_mean_anomaly": 181.3249,
        "meta_ephemeris_type": 0,
        "meta_classification_type": "U",
        "meta_norad_cat_id": 66724,
        "meta_element_set_no": 999,
        "meta_rev_at_epoch": 345,
        "meta_bstar": -0.00073348263,
        "meta_mean_motion_dot": -0.00015096,
        "meta_mean_motion_ddot": 0,
        "tle_line1": "1 66724U 25276BL  25360.43907240 -.00015096  00000+0 -73348-3 0  9992",
        "tle_line2": "2 66724  97.4381  71.9904 0002071 178.7991 181.3249 15.18368984  3454"
      },
      "geometry": {
        "type": "Point",
        "coordinates": [
          78.76080729904398,
          -40.13564205077455
        ]
      }
    }
  ]
}